{
    "links": {
        "self": "http://www.neowsapp.com/rest/v1/neo/3591891?api_key=iIulBulltgU6a56xZRHN4H3l9WmuAYTsLGpBGhQ2"
    },
    "id": "3591891",
    "neo_reference_id": "3591891",
    "name": "(2011 YA63)",
    "designation": "2011 YA63",
    "nasa_jpl_url": "http://ssd.jpl.nasa.gov/sbdb.cgi?sstr=3591891",
    "absolute_magnitude_h": 24.6,
    "estimated_diameter": {
        "kilometers": {
            "estimated_diameter_min": 0.0319561887,
            "estimated_diameter_max": 0.0714562102
        },
        "meters": {
            "estimated_diameter_min": 31.9561886721,
            "estimated_diameter_max": 71.4562101727
        },
        "miles": {
            "estimated_diameter_min": 0.0198566489,
            "estimated_diameter_max": 0.0444008168
        },
        "feet": {
            "estimated_diameter_min": 104.8431420431,
            "estimated_diameter_max": 234.436392583
        }
    },
    "is_potentially_hazardous_asteroid": false,
    "close_approach_data": [
        {
            "close_approach_date": "1991-10-04",
            "close_approach_date_full": "1991-Oct-04 06:21",
            "epoch_date_close_approach": 686557260000,
            "relative_velocity": {
                "kilometers_per_second": "5.5943447308",
                "kilometers_per_hour": "20139.6410309571",
                "miles_per_hour": "12513.9897283744"
            },
            "miss_distance": {
                "astronomical": "0.0923461124",
                "lunar": "35.9226377236",
                "kilometers": "13814781.717820588",
                "miles": "8584107.3091085944"
            },
            "orbiting_body": "Mars"
        },
        {
            "close_approach_date": "2011-12-09",
            "close_approach_date_full": "2011-Dec-09 13:37",
            "epoch_date_close_approach": 1323437820000,
            "relative_velocity": {
                "kilometers_per_second": "2.1775511271",
                "kilometers_per_hour": "7839.1840575916",
                "miles_per_hour": "4870.9641162296"
            },
            "miss_distance": {
                "astronomical": "0.1078470479",
                "lunar": "41.9525016331",
                "kilometers": "16133688.651627973",
                "miles": "10025009.2622651074"
            },
            "orbiting_body": "Earth"
        },
        {
            "close_approach_date": "2012-06-10",
            "close_approach_date_full": "2012-Jun-10 10:00",
            "epoch_date_close_approach": 1339322400000,
            "relative_velocity": {
                "kilometers_per_second": "6.6264723616",
                "kilometers_per_hour": "23855.3005016285",
                "miles_per_hour": "14822.7560255813"
            },
            "miss_distance": {
                "astronomical": "0.0304532887",
                "lunar": "11.8463293043",
                "kilometers": "4555747.124015069",
                "miles": "2830809.9964591922"
            },
            "orbiting_body": "Mars"
        },
        {
            "close_approach_date": "2033-02-17",
            "close_approach_date_full": "2033-Feb-17 11:53",
            "epoch_date_close_approach": 1992253980000,
            "relative_velocity": {
                "kilometers_per_second": "6.7962294735",
                "kilometers_per_hour": "24466.4261045254",
                "miles_per_hour": "15202.4857092258"
            },
            "miss_distance": {
                "astronomical": "0.0248860182",
                "lunar": "9.6806610798",
                "kilometers": "3722895.315501234",
                "miles": "2313299.8799116692"
            },
            "orbiting_body": "Mars"
        },
        {
            "close_approach_date": "2053-10-27",
            "close_approach_date_full": "2053-Oct-27 06:32",
            "epoch_date_close_approach": 2645159520000,
            "relative_velocity": {
                "kilometers_per_second": "6.9250245955",
                "kilometers_per_hour": "24930.0885436617",
                "miles_per_hour": "15490.587517588"
            },
            "miss_distance": {
                "astronomical": "0.0238278664",
                "lunar": "9.2690400296",
                "kilometers": "3564598.060084568",
                "miles": "2214938.5264723184"
            },
            "orbiting_body": "Mars"
        }
    ],
    "orbital_data": {
        "orbit_id": "8",
        "orbit_determination_date": "2017-04-06 08:51:34",
        "first_observation_date": "2011-12-31",
        "last_observation_date": "2012-01-30",
        "data_arc_in_days": 30,
        "observations_used": 32,
        "orbit_uncertainty": "6",
        "minimum_orbit_intersection": ".0953745",
        "jupiter_tisserand_invariant": "4.637",
        "epoch_osculation": "2459000.5",
        "eccentricity": ".2497064219174321",
        "semi_major_axis": "1.437780951371953",
        "inclination": "1.304733945269845",
        "ascending_node_longitude": "215.4340226700399",
        "orbital_period": "629.7055414371606",
        "perihelion_distance": "1.078757814503821",
        "perihelion_argument": "222.3346811568459",
        "aphelion_distance": "1.796804088240085",
        "perihelion_time": "2459052.099568005668",
        "mean_anomaly": "330.5007447772409",
        "mean_motion": ".5716957789165732",
        "equinox": "J2000",
        "orbit_class": {
            "orbit_class_type": "AMO",
            "orbit_class_description": "Near-Earth asteroid orbits similar to that of 1221 Amor",
            "orbit_class_range": "1.017 AU < q (perihelion) < 1.3 AU"
        }
    },
    "is_sentry_object": false
}